[{"OBJECT_NAME":"STARLINK-30367","OBJECT_ID":"2023-134W","EPOCH":"2026-03-09T09:43:49.449216","MEAN_MOTION":15.26733576,"ECCENTRICITY":0.00010813,"INCLINATION":42.9993,"RA_OF_ASC_NODE":196.056,"ARG_OF_PERICENTER":246.0553,"MEAN_ANOMALY":114.0185,"EPHEMERIS_TYPE":0,"CLASSIFICATION_TYPE":"U","NORAD_CAT_ID":57791,"ELEMENT_SET_NO":999,"REV_AT_EPOCH":13946,"BSTAR":-4.3987917e-5,"MEAN_MOTION_DOT":-1.439e-5,"MEAN_MOTION_DDOT":0},{"OBJECT_NAME":"PUCP-SAT 1","OBJECT_ID":"2013-066AC","EPOCH":"2026-03-09T22:02:13.763904","MEAN_MOTION":15.29426022,"ECCENTRICITY":0.00136836,"INCLINATION":97.5787,"RA_OF_ASC_NODE":61.0032,"ARG_OF_PERICENTER":300.1183,"MEAN_ANOMALY":59.87,"EPHEMERIS_TYPE":0,"CLASSIFICATION_TYPE":"U","NORAD_CAT_ID":39442,"ELEMENT_SET_NO":999,"REV_AT_EPOCH":66907,"BSTAR":0.00088755185,"MEAN_MOTION_DOT":0.00025373,"MEAN_MOTION_DDOT":0}]
